#dP2023  6 23  6  0  0.00000000      96 __u+U ITR00 EXT  IAC
## 2267 453600.00000000   900.00000000 60118 0.2500000000000
+  118   C06C07C08C09C10C11C12C13C14C16C19C20C21C22C23C24C25
+        C26C27C28C29C30C32C33C34C35C36C37C38C39C40C41C42C43
+        C44C45C46E02E03E04E07E08E09E10E11E12E13E14E15E18E19
+        E21E24E25E26E27E30E31E33E34E36G01G02G03G04G05G06G07
+        G08G09G10G11G12G13G14G15G16G17G18G19G20G21G22G23G24
+        G25G26G27G28G29G30G31G32J02J03J04R01R02R03R04R05R07
+        R08R09R11R12R13R14R15R16R17R18R19R20R21R22R24R25  0
++         9 10 10  9  8  9  9 10  8  8  9  8  8  9 10  9  9
++         8  9  9  8  7  8  8  9  9  8  8 10 10  9 10  9  8
++         9  8  9  8  8  8  8  8  8  8  8  8  8  8  8  9  8
++         8  8  8  8  8  8  8  8  8  8  8  8  9  8  8  8  8
++         7  8  8  8  8  8  7  8  8  7  8  8  8  8  8 10  8
++         8  7  7  8  7  8  7  8  9  8 10  8  8  9  8  8  8
++         8  8  8  9  9  9  8  8  8  7  9 10  9  8  9  8  0
%c M  cc GPS ccc cccc cccc cccc cccc ccccc ccccc ccccc ccccc
%c cc cc ccc ccc cccc cccc cccc cccc ccccc ccccc ccccc ccccc
%f  0.0000000  0.000000000  0.00000000000  0.000000000000000
%f  0.0000000  0.000000000  0.00000000000  0.000000000000000
%i    0    0    0    0      0      0      0      0         0
%i    0    0    0    0      0      0      0      0         0
/* IAC                                ULTRA-RAPID PREDICTION
/* S/V CLOCKS ARE ALIGNED TO GNSS TIME                      
/* G:C1WC2W R:C1PC2P E:C1XC5X C:C2IC6I J:C1CC2S             
/* PCV:IGS20_2247 OL/AL:FES2004  NONE     YN ORB:CoN CLK:CoN
*  2023 06 23  6 30  0.00000000
PC06 -17472.367310  26097.665038 -28222.588807   -173.087911
PC07  -8824.715169  40838.374559  -4800.149493   -214.657095
PC08   2225.726001  26580.862787  32705.076541    451.103277
PC09  -7201.589336  25524.111843 -32466.512937    501.356918
PC10  -3311.039160  41708.108275   1464.337695    -93.869030
PC11  16649.458153   7219.129214  21266.765418    688.792051
PC12  -2277.578647  17481.223777  21659.352359    733.537518
PC13   8466.877683  30084.432186  28565.642970    301.786803
PC14  12555.233259  16491.446199 -18639.525353    452.828318
PC16 -18955.228580  25549.371523 -27585.550972     32.910003
PC19 -15241.672352  -6280.585993  22544.730937   -927.521331
PC20  -8679.267648 -23034.105027  13195.052587    484.622240
PC21  -3746.092559  27190.057198   4962.661403   -926.318777
PC22 -13382.524407  14958.293263  19371.653343   -428.256880
PC23  19666.638388  -4486.218535  19294.059837   -966.857600
PC24  15876.662673  19569.022161 -12016.897592     93.807445
PC25  25568.263767   9453.089971   6012.169810    153.147650
PC26  -1119.279170  17394.283532 -21810.172151   -138.686166
PC27  10695.715792 -19355.443273 -17039.979717    159.246752
PC28  23532.907661 -14801.631078  -2456.974230    118.405174
PC29 -23156.898579   1199.219661 -15536.194675    137.776061
PC30  -8396.288638 -13613.318338 -22879.420405     -1.465068
PC32   3556.898706 -27231.356928  -5001.137780   -545.847900
PC33  15283.860507   6247.866806 -22489.883828   -899.957987
PC34   9714.477180  12824.575550  22784.052727    199.233366
PC35 -23230.362205  15379.311772   1902.572368    602.541504
PC36 -25261.239503 -10598.820899  -5278.043313   -367.848915
PC37   2707.614965 -16873.469113  22075.835651   -787.166569
PC38  -6181.164846  23849.028468  34273.412167     86.957493
PC39 -23345.958693  26109.275182 -23589.797404     -3.450189
PC40 -14474.632155  38802.516529  -7204.587627    -27.095350
PC41  13551.383383 -14380.367077 -19659.445982   -915.674106
PC42   7949.725036  23882.289316 -11972.665798   -638.666939
PC43  22801.789267   -389.797732  16056.928503     27.474775
PC44 -10156.864596  19840.724388  16790.410991    146.758584
PC45 -19255.206900   4783.892381 -19610.240714   -113.791436
PC46 -17028.688865 -19240.328194  10850.262750    -63.583281
PE02   2590.281552  26051.576802 -13823.007869     45.665229
PE03  -7518.179029  26322.353963 -11237.403790    -29.092849
PE04  -8663.919876 -16446.385593  23047.988882   -150.957840
PE07  19983.575759  -3053.100209 -21617.089284    -54.728133
PE08   8306.585529  16631.389418 -23025.825254   -103.347122
PE09 -19809.637226   2939.084196  21797.684780    -59.854978
PE10 -26106.283797  -8334.846117 -11196.535624   -543.267118
PE11 -29522.080906  -2026.172238   -993.963616   2298.672389
PE12 -18971.983266 -12985.471084 -18664.895720   -590.652133
PE13  29447.200833   2428.962370   1715.423108    -19.304120
PE14  14746.040216 -27504.947724  -6300.063237    262.019852
PE15  18655.477597  13023.846447  18929.380465    -31.594534
PE18 -15103.372158  19055.104377    235.868966    214.116545
PE19   9694.998268 -26485.237304   9001.132756  -2236.438785
PE21  11562.982601 -13270.360087  23800.653306   -536.607278
PE24 -19923.961493  -8610.315404 -20129.717098   -170.368562
PE25 -11785.972668  12933.143138 -23866.641803   -607.205133
PE26  22301.795523  -9908.799302 -16756.873305    142.261341
PE27  19839.297648   7864.339943  20518.032202    -81.588354
PE30  16014.542929  24453.737851   4682.313357   -278.048635
PE31 -16331.082579 -24138.612925  -5172.564473   -526.477303
PE33   3045.979212 -15840.900457 -24822.195532   -442.806221
PE34  -2846.840335  15856.491195  24818.925463    -52.299208
PE36 -22867.211052   9434.825126  16255.695656    -75.407589
PG01 -14037.955584 -13599.586350 -18487.059030    176.723672
PG02  -8232.862627 -14110.909451 -20467.669071   -583.146477
PG03 -12942.671177 -23087.131827   2763.245900   -260.282520
PG04  -6742.964321 -15125.596911  20752.254245     75.922386
PG05   2804.703859  23267.987804  12208.209786   -132.176500
PG06 -23014.318958   5855.345391  12054.037579    583.428669
PG07 -25122.452230  -6959.347221   6753.791980    144.826806
PG08   2660.689473 -22211.046715 -14084.157543   -128.722510
PG09 -14560.926128  -5433.304696  21467.779006   -129.235863
PG10  15222.591486  -1698.497363 -21559.720314    -42.308493
PG11  -9770.013258  13255.236045  20839.004179   -246.671433
PG12   9443.720879  24870.104817   -354.280394   -392.018934
PG13 -11545.894380  21984.845163  -9302.810987    537.738830
PG14 -16767.870554  -1580.664420 -20555.272360     99.631439
PG15    914.743760  22352.584466 -14583.346900     51.427370
PG16   2924.198873 -21488.407923  14713.943615   -488.597433
PG17 -20013.374070  10364.623301 -13713.022689    719.203447
PG18  25996.060885   4854.357199   3281.366067   -318.471409
PG19 -20155.144242  15279.882996  -7774.972062    334.327383
PG20  -3943.044351  18179.918962  19058.573939    426.502892
PG21  -5549.567528 -14641.880982 -21023.259840    152.862906
PG22  18592.601393 -18335.898416  -3906.303252    502.167339
PG23  17977.215312  10952.841264 -16286.948838     35.899679
PG24  10043.253575  14810.569985 -20103.957659   -234.319088
PG25  16798.097860  17884.187489  10185.623076    451.618466
PG26  10525.970023 -12576.377184  20721.610971    238.390043
PG27  12043.054757 -23037.835297  -4485.259151     10.974074
PG28  23883.308785  -5874.800901  10001.820351     83.601272
PG29  12446.011232   8197.760460  21934.987489   -603.638991
PG30 -26455.620934    222.430118  -3507.121613   -509.203028
PG31  15633.967490 -11361.120927  18224.497566   -218.717239
PG32  19313.971403 -13047.546637 -12369.577300   -506.285124
PJ02 -20598.770219  23286.936875 -23825.145022     -0.745103
PJ03 -29355.753681  27422.590268  18179.327664      7.265330
PJ04 -27759.382373  28190.779753  20480.721220     95.743499
PR01  -9232.519696  20662.513831  11755.693507     59.967624
PR02  -2062.618160  24631.915627  -6382.560975    -22.669353
PR03   6818.449725  14185.382007 -20044.380446     80.202711
PR04  11443.065639  -3860.069298 -22436.089809    192.279155
PR05  10098.920481 -19730.751676 -12592.831115    114.622719
PR07  -7219.956178 -13310.198112  20555.127927     58.636439
PR08 -11589.848848   4135.314074  22407.888301    -71.378220
PR09  -8701.954484 -17673.438957  16274.845662    127.324270
PR11 -19421.296613  -7255.394413 -14859.896882    -86.575167
PR12  -7482.183470   8091.212143 -22974.858306     28.393596
PR13   6933.476590  17002.850699 -17713.865297    -36.367667
PR14  19260.099463  16701.867595   -394.757175     24.837980
PR15  18969.539364   6358.062346  15842.298364     88.383997
PR16   7587.010923  -7830.029489  23073.578295     15.924235
PR17  14993.657926   4657.850151  20118.517258    641.491949
PR18  24054.492140  -4355.480482   7208.860074     88.006227
PR19  21924.873515 -10173.108397  -8169.779990   -237.280150
PR20   4286.159447 -11567.005033 -22319.256226    -95.238849
PR21 -16007.760182  -4012.150273 -19446.238750    -17.356790
PR22 -24431.847283   3975.363992  -6164.853659     83.834656
PR24  -3089.989484  12026.214852  22288.206152    -13.245003
PR25 -14692.041573  -5670.083940 -20059.169280     58.470730
EOF
